[{"OBJECT_NAME":"STARLINK-31798","OBJECT_ID":"2024-082E","EPOCH":"2026-01-12T22:51:11.793312","MEAN_MOTION":15.27573707,"ECCENTRICITY":0.00010627,"INCLINATION":43.0038,"RA_OF_ASC_NODE":94.9269,"ARG_OF_PERICENTER":280.7878,"MEAN_ANOMALY":79.2854,"EPHEMERIS_TYPE":0,"CLASSIFICATION_TYPE":"U","NORAD_CAT_ID":59635,"ELEMENT_SET_NO":999,"REV_AT_EPOCH":9628,"BSTAR":-0.00014284915,"MEAN_MOTION_DOT":-4.19e-5,"MEAN_MOTION_DDOT":0},{"OBJECT_NAME":"STARLINK-31802","OBJECT_ID":"2024-082F","EPOCH":"2026-01-12T22:40:02.769600","MEAN_MOTION":15.27602708,"ECCENTRICITY":0.00019152,"INCLINATION":43.0057,"RA_OF_ASC_NODE":94.8688,"ARG_OF_PERICENTER":261.2501,"MEAN_ANOMALY":98.8134,"EPHEMERIS_TYPE":0,"CLASSIFICATION_TYPE":"U","NORAD_CAT_ID":59636,"ELEMENT_SET_NO":999,"REV_AT_EPOCH":9628,"BSTAR":0.00010650944,"MEAN_MOTION_DOT":2.672e-5,"MEAN_MOTION_DDOT":0},{"OBJECT_NAME":"STARLINK-31791","OBJECT_ID":"2024-082G","EPOCH":"2026-01-12T21:48:17.587296","MEAN_MOTION":15.27570409,"ECCENTRICITY":7.827e-5,"INCLINATION":42.9992,"RA_OF_ASC_NODE":94.5989,"ARG_OF_PERICENTER":256.8396,"MEAN_ANOMALY":103.2368,"EPHEMERIS_TYPE":0,"CLASSIFICATION_TYPE":"U","NORAD_CAT_ID":59637,"ELEMENT_SET_NO":999,"REV_AT_EPOCH":9628,"BSTAR":-6.2546367e-5,"MEAN_MOTION_DOT":-1.982e-5,"MEAN_MOTION_DDOT":0},{"OBJECT_NAME":"STARLINK-31727","OBJECT_ID":"2024-082H","EPOCH":"2026-01-12T13:31:48.603936","MEAN_MOTION":15.27560271,"ECCENTRICITY":0.00012262,"INCLINATION":43.0023,"RA_OF_ASC_NODE":97.1681,"ARG_OF_PERICENTER":257.5323,"MEAN_ANOMALY":102.5391,"EPHEMERIS_TYPE":0,"CLASSIFICATION_TYPE":"U","NORAD_CAT_ID":59638,"ELEMENT_SET_NO":999,"REV_AT_EPOCH":9627,"BSTAR":-7.898672e-6,"MEAN_MOTION_DOT":-4.79e-6,"MEAN_MOTION_DDOT":0},{"OBJECT_NAME":"STARLINK-31807","OBJECT_ID":"2024-082J","EPOCH":"2026-01-12T22:45:38.565792","MEAN_MOTION":15.27551934,"ECCENTRICITY":0.0001057,"INCLINATION":43.0025,"RA_OF_ASC_NODE":94.896,"ARG_OF_PERICENTER":262.5733,"MEAN_ANOMALY":97.4999,"EPHEMERIS_TYPE":0,"CLASSIFICATION_TYPE":"U","NORAD_CAT_ID":59639,"ELEMENT_SET_NO":999,"REV_AT_EPOCH":9628,"BSTAR":-6.299948e-5,"MEAN_MOTION_DOT":-1.994e-5,"MEAN_MOTION_DDOT":0},{"OBJECT_NAME":"STARLINK-31806","OBJECT_ID":"2024-082K","EPOCH":"2026-01-12T22:19:44.281632","MEAN_MOTION":15.27573558,"ECCENTRICITY":9.99e-5,"INCLINATION":43.0036,"RA_OF_ASC_NODE":94.766,"ARG_OF_PERICENTER":255.4617,"MEAN_ANOMALY":104.6124,"EPHEMERIS_TYPE":0,"CLASSIFICATION_TYPE":"U","NORAD_CAT_ID":59640,"ELEMENT_SET_NO":999,"REV_AT_EPOCH":9628,"BSTAR":-4.1022316e-5,"MEAN_MOTION_DOT":-1.39e-5,"MEAN_MOTION_DDOT":0},{"OBJECT_NAME":"STARLINK-31804","OBJECT_ID":"2024-082L","EPOCH":"2026-01-12T21:42:45.712800","MEAN_MOTION":15.27556491,"ECCENTRICITY":7.833e-5,"INCLINATION":43.0018,"RA_OF_ASC_NODE":94.5717,"ARG_OF_PERICENTER":33.8564,"MEAN_ANOMALY":326.2338,"EPHEMERIS_TYPE":0,"CLASSIFICATION_TYPE":"U","NORAD_CAT_ID":59641,"ELEMENT_SET_NO":999,"REV_AT_EPOCH":9628,"BSTAR":-4.6462473e-5,"MEAN_MOTION_DOT":-1.539e-5,"MEAN_MOTION_DDOT":0},{"OBJECT_NAME":"STARLINK-31660","OBJECT_ID":"2024-082M","EPOCH":"2026-01-12T19:22:12.204480","MEAN_MOTION":15.27564961,"ECCENTRICITY":9.973e-5,"INCLINATION":43.0013,"RA_OF_ASC_NODE":55.0345,"ARG_OF_PERICENTER":284.4269,"MEAN_ANOMALY":75.6472,"EPHEMERIS_TYPE":0,"CLASSIFICATION_TYPE":"U","NORAD_CAT_ID":59642,"ELEMENT_SET_NO":999,"REV_AT_EPOCH":9692,"BSTAR":-4.3810582e-5,"MEAN_MOTION_DOT":-1.467e-5,"MEAN_MOTION_DDOT":0},{"OBJECT_NAME":"STARLINK-31800","OBJECT_ID":"2024-082N","EPOCH":"2026-01-12T22:36:23.827680","MEAN_MOTION":15.27563795,"ECCENTRICITY":0.00010213,"INCLINATION":43.0029,"RA_OF_ASC_NODE":94.8308,"ARG_OF_PERICENTER":258.6642,"MEAN_ANOMALY":101.4095,"EPHEMERIS_TYPE":0,"CLASSIFICATION_TYPE":"U","NORAD_CAT_ID":59643,"ELEMENT_SET_NO":999,"REV_AT_EPOCH":9638,"BSTAR":-3.127001e-5,"MEAN_MOTION_DOT":-1.122e-5,"MEAN_MOTION_DDOT":0},{"OBJECT_NAME":"STARLINK-31789","OBJECT_ID":"2024-082P","EPOCH":"2026-01-12T21:59:23.282880","MEAN_MOTION":15.27560766,"ECCENTRICITY":0.00012039,"INCLINATION":42.9982,"RA_OF_ASC_NODE":94.6558,"ARG_OF_PERICENTER":248.854,"MEAN_ANOMALY":111.2183,"EPHEMERIS_TYPE":0,"CLASSIFICATION_TYPE":"U","NORAD_CAT_ID":59644,"ELEMENT_SET_NO":999,"REV_AT_EPOCH":9648,"BSTAR":0.00056683834,"MEAN_MOTION_DOT":0.0001536,"MEAN_MOTION_DDOT":0},{"OBJECT_NAME":"STARLINK-31795","OBJECT_ID":"2024-082Q","EPOCH":"2026-01-12T09:56:48.981120","MEAN_MOTION":15.27574008,"ECCENTRICITY":0.00010302,"INCLINATION":43.0017,"RA_OF_ASC_NODE":39.0533,"ARG_OF_PERICENTER":288.4088,"MEAN_ANOMALY":71.6652,"EPHEMERIS_TYPE":0,"CLASSIFICATION_TYPE":"U","NORAD_CAT_ID":59645,"ELEMENT_SET_NO":999,"REV_AT_EPOCH":9687,"BSTAR":9.310915e-6,"MEAN_MOTION_DOT":-6.0e-8,"MEAN_MOTION_DDOT":0},{"OBJECT_NAME":"STARLINK-31796","OBJECT_ID":"2024-082R","EPOCH":"2026-01-12T22:08:38.811552","MEAN_MOTION":15.27571127,"ECCENTRICITY":0.0001028,"INCLINATION":43.002,"RA_OF_ASC_NODE":94.7059,"ARG_OF_PERICENTER":266.1982,"MEAN_ANOMALY":93.8752,"EPHEMERIS_TYPE":0,"CLASSIFICATION_TYPE":"U","NORAD_CAT_ID":59646,"ELEMENT_SET_NO":999,"REV_AT_EPOCH":9644,"BSTAR":-8.6868549e-5,"MEAN_MOTION_DOT":-2.651e-5,"MEAN_MOTION_DDOT":0},{"OBJECT_NAME":"STARLINK-31801","OBJECT_ID":"2024-082S","EPOCH":"2026-01-12T15:11:31.289856","MEAN_MOTION":15.27567026,"ECCENTRICITY":0.00012164,"INCLINATION":43.0019,"RA_OF_ASC_NODE":96.8256,"ARG_OF_PERICENTER":242.8519,"MEAN_ANOMALY":117.2209,"EPHEMERIS_TYPE":0,"CLASSIFICATION_TYPE":"U","NORAD_CAT_ID":59647,"ELEMENT_SET_NO":999,"REV_AT_EPOCH":9628,"BSTAR":-4.367572e-5,"MEAN_MOTION_DOT":-1.463e-5,"MEAN_MOTION_DDOT":0},{"OBJECT_NAME":"STARLINK-31787","OBJECT_ID":"2024-082V","EPOCH":"2026-01-12T22:14:12.139296","MEAN_MOTION":15.27563233,"ECCENTRICITY":0.00010317,"INCLINATION":43.0025,"RA_OF_ASC_NODE":94.7353,"ARG_OF_PERICENTER":285.4485,"MEAN_ANOMALY":74.6253,"EPHEMERIS_TYPE":0,"CLASSIFICATION_TYPE":"U","NORAD_CAT_ID":59650,"ELEMENT_SET_NO":999,"REV_AT_EPOCH":9648,"BSTAR":-4.69464e-5,"MEAN_MOTION_DOT":-1.553e-5,"MEAN_MOTION_DDOT":0},{"OBJECT_NAME":"STARLINK-31277","OBJECT_ID":"2024-082W","EPOCH":"2026-01-12T22:25:18.058656","MEAN_MOTION":15.27578398,"ECCENTRICITY":7.115e-5,"INCLINATION":43.0019,"RA_OF_ASC_NODE":94.7951,"ARG_OF_PERICENTER":277.9073,"MEAN_ANOMALY":82.1698,"EPHEMERIS_TYPE":0,"CLASSIFICATION_TYPE":"U","NORAD_CAT_ID":59651,"ELEMENT_SET_NO":999,"REV_AT_EPOCH":9648,"BSTAR":-0.0001673029,"MEAN_MOTION_DOT":-4.862e-5,"MEAN_MOTION_DDOT":0},{"OBJECT_NAME":"STARLINK-31799","OBJECT_ID":"2024-082X","EPOCH":"2026-01-12T21:44:49.460928","MEAN_MOTION":15.27569091,"ECCENTRICITY":0.0001104,"INCLINATION":43.0025,"RA_OF_ASC_NODE":84.1714,"ARG_OF_PERICENTER":246.4389,"MEAN_ANOMALY":113.6347,"EPHEMERIS_TYPE":0,"CLASSIFICATION_TYPE":"U","NORAD_CAT_ID":59652,"ELEMENT_SET_NO":999,"REV_AT_EPOCH":9645,"BSTAR":-5.6428089e-5,"MEAN_MOTION_DOT":-1.814e-5,"MEAN_MOTION_DDOT":0}]
