STARLINK-31798          
1 59635U 24082E   26012.95221983 -.00004190  00000+0 -14285-3 0  9992
2 59635  43.0038  94.9269 0001062 280.7878  79.2854 15.27573707 96280
STARLINK-31802          
1 59636U 24082F   26012.94447650  .00002672  00000+0  10651-3 0  9997
2 59636  43.0057  94.8688 0001915 261.2501  98.8134 15.27602708 96282
STARLINK-31791          
1 59637U 24082G   26012.90853689 -.00001982  00000+0 -62546-4 0  9993
2 59637  42.9992  94.5989 0000782 256.8396 103.2368 15.27570409 96285
STARLINK-31727          
1 59638U 24082H   26012.56375699 -.00000479  00000+0 -78987-5 0  9993
2 59638  43.0023  97.1681 0001226 257.5323 102.5391 15.27560271 96276
STARLINK-31807          
1 59639U 24082J   26012.94836303 -.00001994  00000+0 -62999-4 0  9998
2 59639  43.0025  94.8960 0001057 262.5733  97.4999 15.27551934 96289
STARLINK-31806          
1 59640U 24082K   26012.93037363 -.00001390  00000+0 -41022-4 0  9992
2 59640  43.0036  94.7660 0000999 255.4617 104.6124 15.27573558 96282
STARLINK-31804          
1 59641U 24082L   26012.90469575 -.00001539  00000+0 -46462-4 0  9992
2 59641  43.0018  94.5717 0000783  33.8564 326.2338 15.27556491 96280
STARLINK-31660          
1 59642U 24082M   26012.80708570 -.00001467  00000+0 -43811-4 0  9998
2 59642  43.0013  55.0345 0000997 284.4269  75.6472 15.27564961 96924
STARLINK-31800          
1 59643U 24082N   26012.94194245 -.00001122  00000+0 -31270-4 0  9996
2 59643  43.0029  94.8308 0001021 258.6642 101.4095 15.27563795 96382
STARLINK-31789          
1 59644U 24082P   26012.91624170  .00015360  00000+0  56684-3 0  9991
2 59644  42.9982  94.6558 0001203 248.8540 111.2183 15.27560766 96487
STARLINK-31795          
1 59645U 24082Q   26012.41445580 -.00000006  00000+0  93109-5 0  9990
2 59645  43.0017  39.0533 0001030 288.4088  71.6652 15.27574008 96877
STARLINK-31796          
1 59646U 24082R   26012.92267143 -.00002651  00000+0 -86869-4 0  9997
2 59646  43.0020  94.7059 0001028 266.1982  93.8752 15.27571127 96445
STARLINK-31801          
1 59647U 24082S   26012.63300104 -.00001463  00000+0 -43676-4 0  9990
2 59647  43.0019  96.8256 0001216 242.8519 117.2209 15.27567026 96285
STARLINK-31787          
1 59650U 24082V   26012.92652939 -.00001553  00000+0 -46946-4 0  9995
2 59650  43.0025  94.7353 0001031 285.4485  74.6253 15.27563233 96484
STARLINK-31277          
1 59651U 24082W   26012.93423679 -.00004862  00000+0 -16730-3 0  9997
2 59651  43.0019  94.7951 0000711 277.9073  82.1698 15.27578398 96480
STARLINK-31799          
1 59652U 24082X   26012.90612802 -.00001814  00000+0 -56428-4 0  9996
2 59652  43.0025  84.1714 0001104 246.4389 113.6347 15.27569091 96454
